[{"OBJECT_NAME":"STARLINK-5581","OBJECT_ID":"2023-013AU","EPOCH":"2026-03-09T09:34:16.326912","MEAN_MOTION":15.02526345,"ECCENTRICITY":0.00010596,"INCLINATION":43.0042,"RA_OF_ASC_NODE":315.0685,"ARG_OF_PERICENTER":243.296,"MEAN_ANOMALY":116.7774,"EPHEMERIS_TYPE":0,"CLASSIFICATION_TYPE":"U","NORAD_CAT_ID":55373,"ELEMENT_SET_NO":999,"REV_AT_EPOCH":17151,"BSTAR":0.00010227581,"MEAN_MOTION_DOT":1.178e-5,"MEAN_MOTION_DDOT":0},{"OBJECT_NAME":"OBJECT A","OBJECT_ID":"2025-313A","EPOCH":"2026-03-09T21:22:42.572064","MEAN_MOTION":14.66981537,"ECCENTRICITY":0.02771301,"INCLINATION":97.5525,"RA_OF_ASC_NODE":140.9497,"ARG_OF_PERICENTER":295.9559,"MEAN_ANOMALY":61.3334,"EPHEMERIS_TYPE":0,"CLASSIFICATION_TYPE":"U","NORAD_CAT_ID":67248,"ELEMENT_SET_NO":999,"REV_AT_EPOCH":1046,"BSTAR":0.0001505143,"MEAN_MOTION_DOT":1.44e-5,"MEAN_MOTION_DDOT":0}]
